{
  "type": "FeatureCollection",
  "features": [
    {
      "type": "Feature",
      "properties": {
        "norad_id": 34816,
        "name": "COSMOS 2251 DEB",
        "group": "cosmos-2251-debris",
        "lat": 68.52058620003189,
        "lon": -104.94267057496576,
        "alt_km": 977.7658377717516,
        "timestamp": "2025-12-25T11:37:44.834659+00:00",
        "meta_object_name": "COSMOS 2251 DEB",
        "meta_object_id": "1993-036ABF",
        "meta_epoch": "2025-12-25T01:06:13.254336",
        "meta_mean_motion": 13.58358364,
        "meta_eccentricity": 0.0372924,
        "meta_inclination": 73.8874,
        "meta_ra_of_asc_node": 123.043,
        "meta_arg_of_pericenter": 185.3949,
        "meta_mean_anomaly": 299.3527,
        "meta_ephemeris_type": 0,
        "meta_classification_type": "U",
        "meta_norad_cat_id": 34816,
        "meta_element_set_no": 999,
        "meta_rev_at_epoch": 82950,
        "meta_bstar": 0.0014772,
        "meta_mean_motion_dot": 1.67e-05,
        "meta_mean_motion_ddot": 0,
        "tle_line1": "1 34816U 93036ABF 25359.04598674  .00001670  00000+0  14772-2 0  9996",
        "tle_line2": "2 34816  73.8874 123.0430 0372924 185.3949 299.3527 13.58358364829507"
      },
      "geometry": {
        "type": "Point",
        "coordinates": [
          -104.94267057496576,
          68.52058620003189
        ]
      }
    },
    {
      "type": "Feature",
      "properties": {
        "norad_id": 34818,
        "name": "COSMOS 2251 DEB",
        "group": "cosmos-2251-debris",
        "lat": 70.03403880384988,
        "lon": -34.50187301401648,
        "alt_km": 761.8180754484956,
        "timestamp": "2025-12-25T11:37:44.834669+00:00",
        "meta_object_name": "COSMOS 2251 DEB",
        "meta_object_id": "1993-036ABH",
        "meta_epoch": "2025-12-22T05:26:11.246784",
        "meta_mean_motion": 14.36978109,
        "meta_eccentricity": 0.00245976,
        "meta_inclination": 74.0363,
        "meta_ra_of_asc_node": 279.4958,
        "meta_arg_of_pericenter": 353.0026,
        "meta_mean_anomaly": 157.1903,
        "meta_ephemeris_type": 0,
        "meta_classification_type": "U",
        "meta_norad_cat_id": 34818,
        "meta_element_set_no": 999,
        "meta_rev_at_epoch": 87506,
        "meta_bstar": 0.00018981942,
        "meta_mean_motion_dot": 5.38e-06,
        "meta_mean_motion_ddot": 0,
        "tle_line1": "1 34818U 93036ABH 25356.22651906  .00000538  00000+0  18982-3 0  9993",
        "tle_line2": "2 34818  74.0363 279.4958 0024597 353.0026 157.1903 14.36978109875069"
      },
      "geometry": {
        "type": "Point",
        "coordinates": [
          -34.50187301401648,
          70.03403880384988
        ]
      }
    },
    {
      "type": "Feature",
      "properties": {
        "norad_id": 34819,
        "name": "COSMOS 2251 DEB",
        "group": "cosmos-2251-debris",
        "lat": 22.064561570101585,
        "lon": -68.51473351766404,
        "alt_km": 673.1894958820467,
        "timestamp": "2025-12-25T11:37:44.834679+00:00",
        "meta_object_name": "COSMOS 2251 DEB",
        "meta_object_id": "1993-036ABJ",
        "meta_epoch": "2025-12-25T01:52:59.959200",
        "meta_mean_motion": 14.64149943,
        "meta_eccentricity": 0.0015249,
        "meta_inclination": 74.0188,
        "meta_ra_of_asc_node": 118.9364,
        "meta_arg_of_pericenter": 214.0486,
        "meta_mean_anomaly": 323.4712,
        "meta_ephemeris_type": 0,
        "meta_classification_type": "U",
        "meta_norad_cat_id": 34819,
        "meta_element_set_no": 999,
        "meta_rev_at_epoch": 88409,
        "meta_bstar": 0.0016706,
        "meta_mean_motion_dot": 8.78e-05,
        "meta_mean_motion_ddot": 0,
        "tle_line1": "1 34819U 93036ABJ 25359.07847175  .00008780  00000+0  16706-2 0  9993",
        "tle_line2": "2 34819  74.0188 118.9364 0015249 214.0486 323.4712 14.64149943884099"
      },
      "geometry": {
        "type": "Point",
        "coordinates": [
          -68.51473351766404,
          22.064561570101585
        ]
      }
    },
    {
      "type": "Feature",
      "properties": {
        "norad_id": 34823,
        "name": "COSMOS 2251 DEB",
        "group": "cosmos-2251-debris",
        "lat": 31.3982980528708,
        "lon": -111.90512918569001,
        "alt_km": 600.7606215278338,
        "timestamp": "2025-12-25T11:37:44.834690+00:00",
        "meta_object_name": "COSMOS 2251 DEB",
        "meta_object_id": "1993-036ABN",
        "meta_epoch": "2025-12-24T15:09:15.666048",
        "meta_mean_motion": 14.54999461,
        "meta_eccentricity": 0.01538489,
        "meta_inclination": 74.0415,
        "meta_ra_of_asc_node": 79.7679,
        "meta_arg_of_pericenter": 161.572,
        "meta_mean_anomaly": 199.1106,
        "meta_ephemeris_type": 0,
        "meta_classification_type": "U",
        "meta_norad_cat_id": 34823,
        "meta_element_set_no": 999,
        "meta_rev_at_epoch": 88554,
        "meta_bstar": 0.00054717068,
        "meta_mean_motion_dot": 2.731e-05,
        "meta_mean_motion_ddot": 0,
        "tle_line1": "1 34823U 93036ABN 25358.63143132  .00002731  00000+0  54717-3 0  9996",
        "tle_line2": "2 34823  74.0415  79.7679 0153848 161.5720 199.1106 14.54999461885548"
      },
      "geometry": {
        "type": "Point",
        "coordinates": [
          -111.90512918569001,
          31.3982980528708
        ]
      }
    },
    {
      "type": "Feature",
      "properties": {
        "norad_id": 34845,
        "name": "COSMOS 2251 DEB",
        "group": "cosmos-2251-debris",
        "lat": 55.31917273489345,
        "lon": 149.01801068159466,
        "alt_km": 744.9681439220913,
        "timestamp": "2025-12-25T11:37:44.834700+00:00",
        "meta_object_name": "COSMOS 2251 DEB",
        "meta_object_id": "1993-036ABP",
        "meta_epoch": "2025-12-24T15:25:52.110336",
        "meta_mean_motion": 14.4588243,
        "meta_eccentricity": 0.00226897,
        "meta_inclination": 74.0249,
        "meta_ra_of_asc_node": 126.132,
        "meta_arg_of_pericenter": 285.329,
        "meta_mean_anomaly": 74.5361,
        "meta_ephemeris_type": 0,
        "meta_classification_type": "U",
        "meta_norad_cat_id": 34845,
        "meta_element_set_no": 999,
        "meta_rev_at_epoch": 87638,
        "meta_bstar": 0.00029040944,
        "meta_mean_motion_dot": 1.008e-05,
        "meta_mean_motion_ddot": 0,
        "tle_line1": "1 34845U 93036ABP 25358.64296424  .00001008  00000+0  29041-3 0  9992",
        "tle_line2": "2 34845  74.0249 126.1320 0022689 285.3290  74.5361 14.45882430876380"
      },
      "geometry": {
        "type": "Point",
        "coordinates": [
          149.01801068159466,
          55.31917273489345
        ]
      }
    },
    {
      "type": "Feature",
      "properties": {
        "norad_id": 34846,
        "name": "COSMOS 2251 DEB",
        "group": "cosmos-2251-debris",
        "lat": 57.457631985850696,
        "lon": -95.3931145011454,
        "alt_km": 737.5749683686918,
        "timestamp": "2025-12-25T11:37:44.834710+00:00",
        "meta_object_name": "COSMOS 2251 DEB",
        "meta_object_id": "1993-036ABQ",
        "meta_epoch": "2025-12-24T17:05:55.036320",
        "meta_mean_motion": 14.47277381,
        "meta_eccentricity": 0.00262307,
        "meta_inclination": 74.0298,
        "meta_ra_of_asc_node": 239.3851,
        "meta_arg_of_pericenter": 304.2923,
        "meta_mean_anomaly": 55.5752,
        "meta_ephemeris_type": 0,
        "meta_classification_type": "U",
        "meta_norad_cat_id": 34846,
        "meta_element_set_no": 999,
        "meta_rev_at_epoch": 87577,
        "meta_bstar": 0.00069731447,
        "meta_mean_motion_dot": 2.535e-05,
        "meta_mean_motion_ddot": 0,
        "tle_line1": "1 34846U 93036ABQ 25358.71244255  .00002535  00000+0  69731-3 0  9992",
        "tle_line2": "2 34846  74.0298 239.3851 0026230 304.2923  55.5752 14.47277381875771"
      },
      "geometry": {
        "type": "Point",
        "coordinates": [
          -95.3931145011454,
          57.457631985850696
        ]
      }
    },
    {
      "type": "Feature",
      "properties": {
        "norad_id": 34852,
        "name": "COSMOS 2251 DEB",
        "group": "cosmos-2251-debris",
        "lat": 17.036481223562667,
        "lon": -115.43242274124896,
        "alt_km": 759.0971507029435,
        "timestamp": "2025-12-25T11:37:44.834720+00:00",
        "meta_object_name": "COSMOS 2251 DEB",
        "meta_object_id": "1993-036ABW",
        "meta_epoch": "2025-12-24T08:48:51.292512",
        "meta_mean_motion": 14.37013481,
        "meta_eccentricity": 0.00167051,
        "meta_inclination": 74.0323,
        "meta_ra_of_asc_node": 241.5883,
        "meta_arg_of_pericenter": 342.3569,
        "meta_mean_anomaly": 17.7002,
        "meta_ephemeris_type": 0,
        "meta_classification_type": "U",
        "meta_norad_cat_id": 34852,
        "meta_element_set_no": 999,
        "meta_rev_at_epoch": 87701,
        "meta_bstar": 0.00010991472,
        "meta_mean_motion_dot": 3e-06,
        "meta_mean_motion_ddot": 0,
        "tle_line1": "1 34852U 93036ABW 25358.36726033  .00000300  00000+0  10991-3 0  9991",
        "tle_line2": "2 34852  74.0323 241.5883 0016705 342.3569  17.7002 14.37013481877017"
      },
      "geometry": {
        "type": "Point",
        "coordinates": [
          -115.43242274124896,
          17.036481223562667
        ]
      }
    }
  ]
}